NORAD_CAT_ID,OBJECT_NAME,OBJECT_TYPE,EPOCH,MEAN_MOTION,ECCENTRICITY,INCLINATION,RA_OF_ASC_NODE,ARG_OF_PERICENTER,MEAN_ANOMALY,BSTAR,MEAN_MOTION_DOT,MEAN_MOTION_DDOT,TLE_LINE0,TLE_LINE1,TLE_LINE2,SEMIMAJOR_AXIS,PERIOD,APOGEE,PERIGEE,DECAYED
55414.0,STARLINK-5620,PAYLOAD,2023-10-22 22:29:08,14.98328031,0.0003069,69.9983,114.8041,270.1193,89.9615,2.7159e-05,2.31e-06,0.0,0 STARLINK-5620,1 55414U 23014Z   23295.93690602  .00000231  00000-0  27159-4 0  9999,2 55414  69.9983 114.8041 0003069 270.1193  89.9615 14.98328031 41434,6950.199,96.107,574.197,569.931,0.0
55414.0,STARLINK-5620,PAYLOAD,2023-10-23 19:18:53,14.98335593,0.0003132,69.9982,112.6156,271.8209,88.2591,-6.0863e-05,-8.19e-06,0.0,0 STARLINK-5620,1 55414U 23014Z   23296.80478325 -.00000819  00000-0 -60863-4 0  9995,2 55414  69.9982 112.6156 0003132 271.8209  88.2591 14.98335593 41563,6950.176,96.107,574.217,569.864,0.0
55414.0,STARLINK-5620,PAYLOAD,2023-10-23 20:55:01,14.98336226,0.0003052,69.9986,112.4471,271.7757,88.3052,-4.7739e-05,-6.63e-06,0.0,0 STARLINK-5620,1 55414U 23014Z   23296.87154245 -.00000663  00000-0 -47739-4 0  9998,2 55414  69.9986 112.4471 0003052 271.7757  88.3052 14.98336226 41571,6950.174,96.107,574.16,569.917,0.0
55414.0,STARLINK-5620,PAYLOAD,2023-10-24 11:20:14,14.98347006,0.0002779,69.9993,110.9323,267.0721,93.012,-0.00029336,-3.593e-05,0.0,0 STARLINK-5620,1 55414U 23014Z   23297.47238434 -.00003593  00000-0 -29336-3 0  9995,2 55414  69.9993 110.9323 0002779 267.0721  93.0120 14.98347006 41669,6950.14,96.106,573.937,570.074,0.0
55414.0,STARLINK-5620,PAYLOAD,2023-10-25 14:34:31,14.98331807,0.0003079,69.9992,108.0714,270.1979,89.8827,-1.1136e-06,-1.06e-06,0.0,0 STARLINK-5620,1 55414U 23014Z   23298.60730379 -.00000106  00000-0 -11136-5 0  9994,2 55414  69.9992 108.0714 0003079 270.1979  89.8827 14.98331807 41832,6950.187,96.107,574.192,569.912,0.0
55414.0,STARLINK-5620,PAYLOAD,2023-10-26 13:00:23,14.98330235,0.000314,69.999,105.7142,269.8817,90.1982,5.9217e-05,6.14e-06,0.0,0 STARLINK-5620,1 55414U 23014Z   23299.54194163  .00000614  00000-0  59217-4 0  9996,2 55414  69.9990 105.7142 0003140 269.8817  90.1982 14.98330235 41970,6950.192,96.107,574.24,569.875,0.0
55414.0,STARLINK-5620,PAYLOAD,2023-10-26 19:24:55,14.98333788,0.0003127,69.9989,105.0406,269.3435,90.7366,6.7569e-05,7.13e-06,0.0,0 STARLINK-5620,1 55414U 23014Z   23299.80897872  .00000713  00000-0  67569-4 0  9991,2 55414  69.9989 105.0406 0003127 269.3435  90.7366 14.98333788 42014,6950.181,96.107,574.219,569.873,0.0
55414.0,STARLINK-5620,PAYLOAD,2023-10-26 21:01:03,14.98334025,0.0003127,69.9989,104.8723,269.3734,90.7067,6.8797e-05,7.28e-06,0.0,0 STARLINK-5620,1 55414U 23014Z   23299.87573837  .00000728  00000-0  68797-4 0  9990,2 55414  69.9989 104.8723 0003127 269.3734  90.7067 14.98334025 42029,6950.18,96.107,574.219,569.872,0.0
55414.0,STARLINK-5620,PAYLOAD,2023-10-27 11:26:16,14.9833152,0.0003094,69.9989,103.3571,269.2617,90.8188,-1.5573e-07,-9.5e-07,0.0,0 STARLINK-5620,1 55414U 23014Z   23300.47658072 -.00000095  00000-0 -15573-6 0  9999,2 55414  69.9989 103.3571 0003094 269.2617  90.8188 14.98331520 42118,6950.188,96.107,574.204,569.903,0.0
55414.0,STARLINK-5620,PAYLOAD,2023-10-27 21:03:04,14.98330635,0.000317,69.9991,102.348,271.1315,88.9481,3.0896e-05,2.76e-06,0.0,0 STARLINK-5620,1 55414U 23014Z   23300.87713991  .00000276  00000-0  30896-4 0  9997,2 55414  69.9991 102.3480 0003170 271.1315  88.9481 14.98330635 42177,6950.191,96.107,574.259,569.853,0.0
55414.0,STARLINK-5620,PAYLOAD,2023-10-28 13:04:25,14.9832925,0.0002997,69.9992,100.6647,272.0866,87.995,-5.8036e-05,-7.85e-06,0.0,0 STARLINK-5620,1 55414U 23014Z   23301.54474300 -.00000785  00000-0 -58036-4 0  9993,2 55414  69.9992 100.6647 0002997 272.0866  87.9950 14.98329250 42273,6950.195,96.107,574.143,569.977,0.0
55414.0,STARLINK-5620,PAYLOAD,2023-10-28 21:05:05,14.9835152,0.0003101,69.9991,99.823,271.1177,88.9627,-0.00039392,-4.793e-05,0.0,0 STARLINK-5620,1 55414U 23014Z   23301.87853618 -.00004793  00000-0 -39392-3 0  9998,2 55414  69.9991  99.8230 0003101 271.1177  88.9627 14.98351520 42325,6950.126,96.106,574.147,569.836,0.0
55414.0,STARLINK-5620,PAYLOAD,2023-10-29 03:29:38,14.98325699,0.0002955,69.9992,99.1497,270.1149,89.9672,4.947e-05,4.97e-06,0.0,0 STARLINK-5620,1 55414U 23014Z   23302.14558253  .00000497  00000-0  49470-4 0  9990,2 55414  69.9992  99.1497 0002955 270.1149  89.9672 14.98325699 42361,6950.206,96.107,574.125,570.017,0.0
55414.0,STARLINK-5620,PAYLOAD,2023-10-29 14:42:34,14.98339853,0.0002691,69.999,97.9712,275.4628,84.6224,-0.00015655,-1.961e-05,0.0,0 STARLINK-5620,1 55414U 23014Z   23302.61289902 -.00001961  00000-0 -15655-3 0  9990,2 55414  69.9990  97.9712 0002691 275.4628  84.6224 14.98339853 42432,6950.162,96.106,573.898,570.157,0.0
55414.0,STARLINK-5620,PAYLOAD,2023-10-29 21:07:06,14.98332709,0.0002881,69.9993,97.2977,272.5437,87.5392,1.729e-05,1.13e-06,0.0,0 STARLINK-5620,1 55414U 23014Z   23302.87993797  .00000113  00000-0  17290-4 0  9996,2 55414  69.9993  97.2977 0002881 272.5437  87.5392 14.98332709 42473,6950.185,96.107,574.052,570.047,0.0
55414.0,STARLINK-5620,PAYLOAD,2023-10-30 19:32:59,14.98324952,0.0002946,69.9993,94.942,267.733,92.3492,3.0514e-05,2.71e-06,0.0,0 STARLINK-5620,1 55414U 23014Z   23303.81458260  .00000271  00000-0  30514-4 0  9991,2 55414  69.9993  94.9420 0002946 267.7330  92.3492 14.98324952 42612,6950.209,96.107,574.121,570.026,0.0
55414.0,STARLINK-5620,PAYLOAD,2023-10-30 21:09:08,14.98325635,0.0002715,70.0002,94.7735,262.8725,97.2126,1.5578e-05,9.3e-07,0.0,0 STARLINK-5620,1 55414U 23014Z   23303.88134276  .00000093  00000-0  15578-4 0  9991,2 55414  70.0002  94.7735 0002715 262.8725  97.2126 14.98325635 42629,6950.206,96.107,573.958,570.184,0.0
55414.0,STARLINK-5620,PAYLOAD,2023-10-31 03:33:39,14.98360948,0.0003127,70.0009,94.099,275.9692,84.111,-0.00061715,-7.455e-05,0.0,0 STARLINK-5620,1 55414U 23014Z   23304.14837354 -.00007455  00000-0 -61715-3 0  9992,2 55414  70.0009  94.0990 0003127 275.9692  84.1110 14.98360948 42666,6950.097,96.105,574.135,569.789,0.0
55414.0,STARLINK-5620,PAYLOAD,2023-10-31 09:58:12,14.9832927,0.0002962,70.0013,93.4261,272.2514,87.8306,-1.53e-05,-2.76e-06,0.0,0 STARLINK-5620,1 55414U 23014Z   23304.41542168 -.00000276  00000-0 -15300-4 0  9992,2 55414  70.0013  93.4261 0002962 272.2514  87.8306 14.98329270 42709,6950.195,96.107,574.119,570.002,0.0
55414.0,STARLINK-5620,PAYLOAD,2023-10-31 14:46:36,14.98329377,0.0002716,70.0002,92.9212,263.516,96.5689,-7.9767e-06,-1.88e-06,0.0,0 STARLINK-5620,1 55414U 23014Z   23304.61570105 -.00000188  00000-0 -79767-5 0  9996,2 55414  70.0002  92.9212 0002716 263.5160  96.5689 14.98329377 42736,6950.195,96.107,573.947,570.172,0.0
55414.0,STARLINK-5620,PAYLOAD,2023-10-31 19:35:00,14.98326628,0.0003039,70.0007,92.4162,256.5561,103.5259,-1.0652e-05,-2.2e-06,0.0,0 STARLINK-5620,1 55414U 23014Z   23304.81598160 -.00000220  00000-0 -10652-4 0  9993,2 55414  70.0007  92.4162 0003039 256.5561 103.5259 14.98326628 42767,6950.203,96.107,574.18,569.956,0.0
55414.0,STARLINK-5620,PAYLOAD,2023-11-01 10:00:13,14.98326991,0.0003009,70.0002,90.9013,269.3904,90.691,2.1724e-05,1.66e-06,0.0,0 STARLINK-5620,1 55414U 23014Z   23305.41682207  .00000166  00000-0  21724-4 0  9995,2 55414  70.0002  90.9013 0003009 269.3904  90.6910 14.98326991 42853,6950.202,96.107,574.159,569.976,0.0
55414.0,STARLINK-5620,PAYLOAD,2023-11-01 14:48:37,14.98326889,0.0002997,70.0,90.3965,269.6462,90.4354,1.5392e-05,9.1e-07,0.0,0 STARLINK-5620,1 55414U 23014Z   23305.61710265  .00000091  00000-0  15392-4 0  9994,2 55414  70.0000  90.3965 0002997 269.6462  90.4354 14.98326889 42887,6950.203,96.107,574.15,569.985,0.0
55414.0,STARLINK-5620,PAYLOAD,2023-11-01 19:37:01,14.9833014,0.0002964,70.0001,89.8916,269.0956,90.9863,4.7606e-05,4.75e-06,0.0,0 STARLINK-5620,1 55414U 23014Z   23305.81737982  .00000475  00000-0  47606-4 0  9990,2 55414  70.0001  89.8916 0002964 269.0956  90.9863 14.98330140 42912,6950.192,96.107,574.117,569.997,0.0
55414.0,STARLINK-5620,PAYLOAD,2023-11-02 13:14:30,14.98329319,0.0003029,69.9999,88.0397,270.3928,89.6884,1.4758e-05,8.3e-07,0.0,0 STARLINK-5620,1 55414U 23014Z   23306.55174105  .00000083  00000-0  14758-4 0  9991,2 55414  69.9999  88.0397 0003029 270.3928  89.6884 14.98329319 43023,6950.195,96.107,574.165,569.955,0.0
55414.0,STARLINK-5620,PAYLOAD,2023-11-02 14:50:38,14.98329273,0.0002968,70.0003,87.8719,271.9267,88.1553,2.2334e-05,1.73e-06,0.0,0 STARLINK-5620,1 55414U 23014Z   23306.61850100  .00000173  00000-0  22334-4 0  9993,2 55414  70.0003  87.8719 0002968 271.9267  88.1553 14.98329273 43038,6950.195,96.107,574.123,569.997,0.0
55414.0,STARLINK-5620,PAYLOAD,2023-11-02 19:39:02,14.98331372,0.0002924,70.0004,87.367,270.5918,89.4906,4.4038e-05,4.33e-06,0.0,0 STARLINK-5620,1 55414U 23014Z   23306.81877890  .00000433  00000-0  44038-4 0  9994,2 55414  70.0004  87.3670 0002924 270.5918  89.4906 14.98331372 43062,6950.189,96.107,574.086,570.021,0.0
55414.0,STARLINK-5620,PAYLOAD,2023-11-03 11:40:23,14.98328025,0.0002474,70.0007,85.6838,275.5212,84.5665,1.3853e-05,7.2e-07,0.0,0 STARLINK-5620,1 55414U 23014Z   23307.48638378  .00000072  00000-0  13853-4 0  9994,2 55414  70.0007  85.6838 0002474 275.5212  84.5665 14.98328025 43164,6950.199,96.107,573.783,570.345,0.0
55414.0,STARLINK-5620,PAYLOAD,2023-11-03 18:04:54,14.98379969,0.000228,70.0009,85.0112,257.0419,103.0485,-0.00085603,-0.00010305,0.0,0 STARLINK-5620,1 55414U 23014Z   23307.75341059 -.00010305  00000-0 -85603-3 0  9994,2 55414  70.0009  85.0112 0002280 257.0419 103.0485 14.98379969 43209,6950.038,96.104,573.488,570.319,0.0
55414.0,STARLINK-5620,PAYLOAD,2023-11-04 02:05:35,14.98333302,0.0002807,70.0011,84.1696,271.3825,88.7013,-7.9658e-05,-1.043e-05,0.0,0 STARLINK-5620,1 55414U 23014Z   23308.08722081 -.00001043  00000-0 -79658-4 0  9992,2 55414  70.0011  84.1696 0002807 271.3825  88.7013 14.98333302 43256,6950.183,96.107,573.999,570.097,0.0
